{"type":"FeatureCollection","features":[{"type":"Feature","properties":{"segmentType":"trace"},"geometry":{"type":"LineString","coordinates":[[-122.01831,37.372788],[-122.023557,37.374244],[-122.025265,37.3761],[-122.033356,37.379652],[-122.027526,37.399521],[-122.035201,37.400713],[-122.036142,37.401153],[-122.035499,37.401831],[-122.034692,37.401667],[-122.035049,37.401044],[-122.046408,37.395145],[-122.033414,37.401395],[-121.98758,37.411642],[-121.969975,37.418554],[-121.943521,37.419343],[-121.92483,37.422835],[-121.917818,37.425503],[-121.917127,37.428502],[-121.923495,37.457954],[-121.935133,37.482902],[-121.934474,37.48468],[-121.93059,37.488969],[-121.921914,37.495965],[-121.921788,37.495328],[-121.922692,37.495469],[-121.934525,37.50612],[-121.945594,37.524003],[-121.945928,37.526595],[-121.943293,37.529842],[-121.926912,37.53865],[-121.921478,37.543244],[-121.917031,37.553486],[-121.912878,37.558731],[-121.906058,37.561558],[-121.901807,37.564968],[-121.88518,37.574444],[-121.879595,37.576459],[-121.876136,37.579239],[-121.870032,37.591201],[-121.873222,37.597089],[-121.871667,37.602335],[-121.871917,37.604472],[-121.879674,37.621622],[-121.880131,37.627655],[-121.883793,37.634189],[-121.884895,37.640742],[-121.907167,37.662903],[-121.923672,37.703515],[-121.946831,37.732329],[-121.955362,37.744468],[-121.970507,37.768231],[-121.983682,37.794172],[-121.988748,37.802189],[-121.993027,37.812675],[-121.992424,37.821602],[-121.991306,37.822958],[-121.988383,37.823414],[-121.984404,37.821744],[-121.98445,37.820131],[-121.981331,37.819048],[-121.980326,37.817596],[-121.97926,37.819062],[-121.976295,37.818659],[-121.976638,37.816092],[-121.97677,37.817342],[-121.981672,37.814519],[-121.986387,37.81423],[-121.986672,37.81627],[-121.982429,37.816218],[-121.981983,37.816589],[-121.983732,37.817619],[-121.981447,37.817157],[-121.980745,37.818477],[-121.984422,37.820223],[-121.984562,37.821886],[-121.988468,37.823503],[-121.992741,37.823034],[-121.996545,37.827023],[-122.01818,37.840595],[-122.026294,37.846598],[-122.028403,37.849674],[-122.029557,37.855667],[-122.033088,37.861419],[-122.037414,37.865137],[-122.044486,37.874594],[-122.058699,37.890123],[-122.070585,37.896036],[-122.086003,37.898273],[-122.09985,37.897677],[-122.12159,37.894152],[-122.136012,37.890915],[-122.149406,37.891528],[-122.162086,37.893228],[-122.169553,37.892374],[-122.174184,37.890554],[-122.176957,37.888416],[-122.180907,37.882709],[-122.185978,37.878336],[-122.190389,37.872252],[-122.196602,37.867911],[-122.203177,37.867248],[-122.207701,37.865847],[-122.212788,37.859526],[-122.217236,37.855821],[-122.222089,37.853183],[-122.224155,37.849639],[-122.226441,37.848805],[-122.23397,37.848906],[-122.240475,37.850049],[-122.249853,37.845576],[-122.261521,37.841798],[-122.261428,37.843453],[-122.264531,37.843541],[-122.265003,37.844171],[-122.267955,37.869066],[-122.267493,37.870394],[-122.268613,37.869985],[-122.267896,37.869078],[-122.267296,37.863237],[-122.268211,37.864792],[-122.271543,37.864355],[-122.272994,37.863272],[-122.293602,37.860319],[-122.295389,37.860962],[-122.297905,37.867999],[-122.303391,37.867048],[-122.307278,37.878985],[-122.308688,37.885884],[-122.308292,37.890235],[-122.309654,37.894686],[-122.326104,37.914844],[-122.332753,37.920163],[-122.337307,37.921546],[-122.355495,37.922029],[-122.365911,37.926749],[-122.380271,37.927494],[-122.3954,37.932714],[-122.400644,37.932147],[-122.45106,37.93574],[-122.46891,37.941],[-122.47881,37.942892],[-122.482935,37.944825],[-122.4894,37.945396],[-122.504863,37.959638],[-122.521394,37.969698],[-122.520386,37.977066],[-122.521736,37.981653],[-122.52371,37.985021],[-122.531069,37.992844],[-122.541393,38.007263],[-122.541652,38.014244],[-122.539913,38.018458],[-122.538019,38.020371],[-122.543612,38.024236],[-122.551468,38.027118],[-122.554628,38.027002],[-122.559033,38.025505],[-122.570243,38.025457],[-122.581818,38.030408],[-122.584389,38.032771],[-122.592097,38.036489],[-122.598671,38.037025],[-122.603251,38.038598],[-122.604763,38.040341],[-122.607264,38.040669],[-122.611149,38.043333],[-122.619982,38.045039],[-122.621011,38.047271],[-122.623318,38.048247],[-122.628368,38.047604],[-122.631011,38.044713],[-122.634716,38.044052],[-122.635968,38.042977],[-122.641614,38.043818],[-122.643543,38.046435],[-122.643448,38.048738],[-122.644589,38.050875],[-122.648765,38.053718],[-122.655093,38.056257],[-122.6633,38.056168],[-122.674892,38.049631],[-122.679108,38.049361],[-122.681037,38.050555],[-122.68331,38.050177],[-122.686583,38.052613],[-122.689897,38.053092],[-122.693308,38.054813],[-122.697399,38.060799],[-122.698689,38.061084],[-122.702542,38.066345],[-122.707968,38.077009],[-122.710346,38.078663],[-122.719559,38.082322],[-122.723307,38.086666],[-122.729726,38.090071],[-122.733184,38.096641],[-122.734283,38.096639],[-122.73637,38.093197],[-122.738056,38.092333],[-122.750291,38.092519],[-122.752913,38.091358],[-122.753786,38.089578],[-122.752884,38.085159],[-122.754992,38.077675],[-122.75783,38.072712],[-122.761674,38.071081],[-122.763513,38.069169],[-122.769293,38.070687],[-122.77128,38.074851],[-122.782411,38.08299],[-122.784855,38.081546],[-122.784604,38.078082],[-122.785403,38.075539],[-122.788804,38.07506],[-122.794202,38.076804],[-122.796354,38.07608],[-122.800016,38.073044],[-122.801267,38.073294],[-122.806638,38.068969],[-122.804447,38.067177],[-122.805241,38.064359],[-122.809042,38.064585],[-122.817561,38.061614],[-122.820341,38.062972],[-122.823094,38.068048],[-122.837262,38.083404],[-122.838296,38.085495],[-122.847563,38.093603],[-122.850628,38.095354],[-122.857417,38.102761],[-122.861639,38.105188],[-122.86585,38.109484],[-122.876571,38.108598],[-122.87907,38.107615],[-122.88822,38.110598],[-122.891971,38.109334],[-122.897899,38.109046],[-122.907027,38.099311],[-122.910139,38.097661],[-122.912516,38.094893],[-122.916825,38.092694],[-122.927945,38.09126],[-122.93187,38.091879],[-122.938853,38.09511],[-122.948135,38.090562],[-122.952124,38.086917],[-122.957254,38.085637],[-122.961917,38.079563],[-122.962542,38.077043],[-122.969414,38.070099],[-122.972299,38.068173],[-122.971367,38.064223],[-122.973009,38.063494],[-122.973514,38.06058],[-122.975417,38.058907],[-122.974928,38.056949],[-122.975636,38.05451],[-122.973937,38.047706],[-122.976187,38.04648],[-122.977606,38.046837],[-122.978083,38.044167],[-122.98375,38.037406],[-122.984337,38.031789],[-122.985896,38.028594],[-122.986466,38.024878],[-122.98907,38.023442],[-122.988256,38.016561],[-122.992971,38.014133],[-122.994738,38.011097],[-122.996737,38.009806],[-122.99648,38.008655],[-122.99805,38.00603],[-122.997834,38.004036],[-122.994858,38.000483],[-122.99507,37.998552],[-122.999669,37.996004],[-123.012768,37.997839],[-123.023023,37.99584],[-123.011242,37.998057],[-123.009509,37.997214],[-122.999467,37.995978],[-122.995226,37.998213],[-122.991383,37.99639],[-122.980474,37.995288],[-122.971865,37.993163],[-122.972058,37.991012],[-122.97188,37.993202],[-122.973203,37.99301],[-122.97995,37.995307],[-122.991307,37.996425],[-122.99349,37.997351],[-122.994759,37.998137],[-122.994967,38.000727],[-122.997826,38.004136],[-122.998122,38.00555],[-122.996571,38.008204],[-122.996916,38.00935],[-122.994344,38.011432],[-122.993341,38.013713],[-122.989008,38.015834],[-122.987974,38.017121],[-122.989059,38.023376],[-122.986791,38.024136],[-122.98641,38.024969],[-122.985768,38.028964],[-122.984213,38.032066],[-122.983455,38.037772],[-122.978219,38.043855],[-122.97769,38.046658],[-122.976162,38.046442],[-122.973928,38.047541],[-122.975601,38.054366],[-122.974845,38.057501],[-122.975377,38.058804],[-122.97359,38.060243],[-122.973025,38.063304],[-122.971301,38.064581],[-122.972179,38.065984],[-122.971973,38.068521],[-122.969504,38.069915],[-122.962695,38.076738],[-122.961482,38.080085],[-122.95729,38.08553],[-122.952266,38.086699],[-122.94764,38.090839],[-122.938079,38.095152],[-122.931775,38.091773],[-122.928305,38.091301],[-122.924556,38.091208],[-122.91612,38.09273],[-122.907021,38.099204],[-122.898231,38.108848],[-122.891559,38.109332],[-122.888299,38.110508],[-122.879082,38.107549],[-122.876514,38.108504],[-122.866721,38.109485],[-122.864858,38.108901],[-122.861667,38.105152],[-122.857471,38.102742],[-122.850556,38.095204],[-122.847573,38.093538],[-122.838519,38.085587],[-122.837278,38.083312],[-122.823194,38.068147],[-122.820716,38.063348],[-122.817357,38.061561],[-122.809032,38.064539],[-122.805681,38.064282],[-122.804243,38.066932],[-122.806557,38.068595],[-122.806164,38.069253],[-122.796412,38.075978],[-122.793451,38.076724],[-122.788909,38.075],[-122.785175,38.07573],[-122.784439,38.078449],[-122.784671,38.08166],[-122.783146,38.082696],[-122.781008,38.082555],[-122.777226,38.078483],[-122.771252,38.07479],[-122.76959,38.070727],[-122.764246,38.069241],[-122.764703,38.06875],[-122.768419,38.069975],[-122.772814,38.067839],[-122.773072,38.066178],[-122.771121,38.06334],[-122.771175,38.059627],[-122.767731,38.059629],[-122.759891,38.056465],[-122.758619,38.053957],[-122.759637,38.051618],[-122.759147,38.05018],[-122.753402,38.048325],[-122.750095,38.044958],[-122.74511,38.04298],[-122.745869,38.03703],[-122.742033,38.033273],[-122.743411,38.02949],[-122.742495,38.029166],[-122.738665,38.030465],[-122.736713,38.029751],[-122.735829,38.028302],[-122.736201,38.024822],[-122.732908,38.019169],[-122.72813,38.020177],[-122.724848,38.019485],[-122.723353,38.016151],[-122.720107,38.015639],[-122.716169,38.013793],[-122.712756,38.010915],[-122.71149,38.008217],[-122.711427,38.005412],[-122.7107,38.004927],[-122.70886,38.004486],[-122.706218,38.005077],[-122.705239,38.006377],[-122.705359,38.007783],[-122.701962,38.009772],[-122.702012,38.011964],[-122.693308,38.015223],[-122.687539,38.015309],[-122.67972,38.016758],[-122.666393,38.01442],[-122.647583,38.014962],[-122.639169,38.015995],[-122.635545,38.015592],[-122.626674,38.010743],[-122.622728,38.011717],[-122.618525,38.011343],[-122.617118,38.008028],[-122.614554,38.005675],[-122.613277,38.002641],[-122.607422,38.000349],[-122.601361,37.999748],[-122.598883,37.996924],[-122.595017,37.994548],[-122.589763,37.987428],[-122.576068,37.986259],[-122.565347,37.980081],[-122.563438,37.977595],[-122.561419,37.976401],[-122.549939,37.97615],[-122.535143,37.971902],[-122.52252,37.970577],[-122.519971,37.967894],[-122.505019,37.959494],[-122.490919,37.946111],[-122.488895,37.945013],[-122.483283,37.944739],[-122.478464,37.942643],[-122.450418,37.935576],[-122.402525,37.931934],[-122.395906,37.932557],[-122.380584,37.927315],[-122.36667,37.926688],[-122.355416,37.921778],[-122.338103,37.921389],[-122.333265,37.920175],[-122.325737,37.914116],[-122.309614,37.894112],[-122.308874,37.891419],[-122.309345,37.886322],[-122.308008,37.880212],[-122.300135,37.85306],[-122.29669,37.83787],[-122.294,37.831771],[-122.293704,37.828725],[-122.28986,37.826465],[-122.281751,37.82726],[-122.270189,37.824489],[-122.268364,37.824876],[-122.266947,37.827348],[-122.265193,37.837724],[-122.263095,37.840383],[-122.24897,37.845427],[-122.24087,37.849611],[-122.238076,37.849733],[-122.234805,37.848606],[-122.224773,37.848923],[-122.221033,37.853746],[-122.216158,37.855003],[-122.211994,37.858241],[-122.209846,37.860421],[-122.208984,37.863804],[-122.207681,37.865519],[-122.203242,37.86698],[-122.195886,37.867886],[-122.188266,37.873478],[-122.183884,37.877789],[-122.176445,37.888247],[-122.170247,37.891721],[-122.161758,37.892788],[-122.147441,37.890819],[-122.142101,37.891195],[-122.135693,37.890366],[-122.121397,37.893685],[-122.099256,37.897292],[-122.08584,37.897804],[-122.070859,37.895218],[-122.059662,37.890214],[-122.045107,37.874718],[-122.03751,37.864773],[-122.033302,37.861112],[-122.029813,37.855411],[-122.029467,37.851104],[-122.027077,37.846854],[-122.019131,37.840821],[-121.997582,37.827324],[-121.995336,37.825346],[-121.994241,37.823195],[-121.988352,37.823428],[-121.984104,37.821639],[-121.984831,37.821339],[-121.983976,37.821423],[-121.988114,37.823463],[-121.993539,37.822981],[-121.993973,37.822372],[-121.99345,37.812712],[-121.98866,37.801026],[-121.984529,37.794923],[-121.971,37.768344],[-121.955524,37.744029],[-121.944472,37.728715],[-121.924157,37.703754],[-121.907623,37.66306],[-121.885197,37.640712],[-121.884274,37.634559],[-121.880628,37.628097],[-121.879943,37.621232],[-121.872171,37.604285],[-121.87214,37.601967],[-121.873683,37.597828],[-121.870322,37.591062],[-121.876686,37.578966],[-121.879974,37.576557],[-121.885235,37.574693],[-121.901633,37.565394],[-121.906717,37.561516],[-121.912536,37.559351],[-121.916902,37.554332],[-121.919617,37.549282],[-121.920426,37.545157],[-121.921858,37.543263],[-121.926999,37.53893],[-121.942919,37.530441],[-121.945818,37.5283],[-121.947,37.526003],[-121.9461,37.522719],[-121.941708,37.517605],[-121.935022,37.506123],[-121.926194,37.4979],[-121.924951,37.495046],[-121.927442,37.491603],[-121.935963,37.484754],[-121.936608,37.482206],[-121.932706,37.475937],[-121.924015,37.458086],[-121.91897,37.430943],[-121.913805,37.416359],[-121.914084,37.415418],[-121.916783,37.413774],[-121.915419,37.41308],[-121.91327,37.413931],[-121.916992,37.420193],[-121.916217,37.420794],[-121.918242,37.422255],[-121.921878,37.421035],[-121.923386,37.424152],[-121.943525,37.419582],[-121.97029,37.418814],[-121.98696,37.412109],[-121.999496,37.409327],[-122.000244,37.409628],[-121.999728,37.410077],[-121.996071,37.403996],[-121.996178,37.374413],[-122.006544,37.37395],[-122.013468,37.375226],[-122.013873,37.370887],[-122.016682,37.371856]]}},{"type":"Feature","properties":{"startTs":1786212412,"endTs":1786215907,"durationMin":58,"placeName":"Danville, California, United States","isHomeLayover":false,"isOvernight":false},"geometry":{"type":"Point","coordinates":[-121.97682423076922,37.817082769230765]}},{"type":"Feature","properties":{"startTs":1786219215,"endTs":1786222304,"durationMin":51,"placeName":"Berkeley, California, United States","isHomeLayover":false,"isOvernight":false},"geometry":{"type":"Point","coordinates":[-122.2679016923077,37.86930546153847]}},{"type":"Feature","properties":{"startTs":1786231312,"endTs":1786233867,"durationMin":43,"placeName":"Marin County, California, United States","isHomeLayover":false,"isOvernight":false},"geometry":{"type":"Point","coordinates":[-123.02154665217388,37.996254086956526]}},{"type":"Feature","properties":{"startTs":1786236295,"endTs":1786237774,"durationMin":25,"placeName":"Marin County, California, United States","isHomeLayover":false,"isOvernight":false},"geometry":{"type":"Point","coordinates":[-122.97220240909093,37.99216363636364]}},{"type":"Feature","properties":{"startTs":1786249220,"endTs":1786251532,"durationMin":39,"placeName":"Sunnyvale, California, United States","isHomeLayover":true,"isOvernight":false},"geometry":{"type":"Point","coordinates":[-121.91675799999999,37.42062454545454]}}],"bbox":[-123.023023,37.370887,-121.870032,38.110598]}