{"type":"FeatureCollection","features":[{"type":"Feature","properties":{"segmentType":"trace"},"geometry":{"type":"LineString","coordinates":[[-122.050357,37.395294],[-122.05059,37.396028],[-122.051001,37.395605],[-122.049637,37.398449],[-122.050206,37.396225],[-122.052077,37.395273],[-122.053245,37.397745],[-122.051267,37.403241],[-122.055833,37.405414],[-122.061711,37.406669],[-122.081653,37.413328],[-122.098187,37.425182],[-122.115428,37.440892],[-122.116017,37.442192],[-122.118548,37.443544],[-122.126378,37.451938],[-122.144409,37.461943],[-122.155944,37.469653],[-122.17489,37.48071],[-122.194075,37.485953],[-122.209912,37.488336],[-122.230649,37.495859],[-122.235082,37.49658],[-122.240091,37.499385],[-122.267587,37.523726],[-122.268359,37.526049],[-122.268898,37.525617],[-122.273906,37.529487],[-122.2848,37.541679],[-122.288022,37.543231],[-122.288427,37.545627],[-122.294196,37.550959],[-122.296309,37.554301],[-122.308403,37.564903],[-122.309956,37.567164],[-122.326843,37.582907],[-122.342172,37.586986],[-122.346821,37.587035],[-122.352907,37.588604],[-122.356553,37.587861],[-122.369019,37.594922],[-122.377596,37.600939],[-122.385314,37.602777],[-122.388011,37.607498],[-122.390357,37.609102],[-122.399341,37.619292],[-122.402309,37.628561],[-122.401002,37.634016],[-122.406067,37.644128],[-122.407299,37.655269],[-122.40247,37.662071],[-122.399938,37.6632],[-122.389246,37.673408],[-122.388578,37.676267],[-122.391984,37.696181],[-122.391044,37.709361],[-122.39518,37.710096],[-122.395915,37.713163],[-122.397698,37.714359],[-122.399962,37.720126],[-122.399469,37.721059],[-122.400691,37.722072],[-122.404683,37.734431],[-122.39663,37.743193],[-122.392569,37.751684],[-122.391198,37.751781],[-122.391363,37.757082],[-122.392364,37.759835],[-122.39148,37.760878],[-122.392211,37.760791],[-122.391946,37.762942],[-122.39302,37.764104],[-122.387632,37.764684],[-122.385848,37.767166],[-122.387577,37.774701],[-122.390144,37.776959],[-122.389555,37.778216],[-122.391038,37.778221],[-122.388986,37.778761],[-122.389498,37.77967],[-122.388753,37.778872],[-122.387874,37.779415],[-122.389204,37.778699],[-122.387789,37.779444],[-122.391139,37.778523],[-122.390512,37.778293],[-122.391252,37.778225],[-122.390885,37.777726],[-122.391336,37.77835],[-122.397426,37.774586],[-122.400066,37.770712],[-122.395406,37.76665],[-122.391861,37.756832],[-122.404444,37.655034],[-122.41345,37.645027],[-122.413457,37.635095],[-122.41242,37.630396],[-122.410854,37.629128],[-122.407229,37.621999],[-122.39846,37.610554],[-122.386865,37.599668],[-122.379992,37.594641],[-122.367986,37.590387],[-122.365911,37.588407],[-122.345032,37.580404],[-122.335005,37.576005],[-122.329089,37.572376],[-122.31173,37.556893],[-122.305682,37.546831],[-122.29349,37.533521],[-122.288069,37.529757],[-122.285411,37.528865],[-122.284888,37.527728],[-122.275379,37.52095],[-122.2743,37.518937],[-122.261656,37.509385],[-122.260354,37.507339],[-122.25439,37.502003],[-122.242704,37.49248],[-122.234667,37.488201],[-122.208962,37.47133],[-122.206678,37.470734],[-122.191391,37.460139],[-122.175591,37.450958],[-122.107926,37.407765],[-122.07511,37.393614],[-122.074787,37.39423],[-122.075501,37.394076],[-122.07487,37.393332],[-122.077864,37.394563],[-122.076542,37.397546],[-122.073045,37.400271],[-122.07001,37.398938],[-122.055925,37.396674],[-122.051074,37.394768],[-122.05127,37.395406],[-122.049931,37.396025],[-122.050287,37.395538],[-122.04832,37.394423],[-122.050085,37.392454],[-122.048216,37.390595],[-122.046502,37.386397],[-122.043834,37.386734],[-122.021461,37.381891],[-122.013346,37.377952],[-122.01387,37.370655],[-122.016583,37.371731],[-122.015273,37.372862],[-122.016512,37.37229],[-122.016278,37.371343],[-122.014478,37.370617],[-122.013621,37.371251],[-122.013361,37.376724],[-122.012114,37.377722],[-122.006843,37.376466],[-122.001273,37.377485],[-121.981141,37.377615],[-121.975673,37.374543],[-121.964671,37.374176],[-121.965289,37.373988],[-121.9654,37.378355],[-121.961266,37.386188],[-121.942007,37.395071],[-121.928632,37.399715],[-121.925635,37.398546],[-121.921678,37.394002],[-121.918772,37.393406],[-121.905889,37.403994],[-121.891311,37.403326],[-121.890728,37.402921],[-121.891258,37.400185],[-121.890504,37.392659],[-121.873587,37.37423],[-121.873949,37.373259],[-121.87925,37.369718],[-121.879896,37.370393],[-121.878648,37.371219],[-121.877271,37.370656],[-121.873285,37.373509],[-121.862765,37.384417],[-121.862214,37.384914],[-121.861795,37.384332],[-121.871543,37.392678],[-121.874605,37.396703],[-121.883468,37.425143],[-121.888687,37.435666],[-121.892328,37.450797],[-121.909108,37.47107],[-121.913547,37.483526],[-121.918717,37.491239],[-121.935045,37.506847],[-121.945367,37.52374],[-121.945957,37.525637],[-121.945404,37.527801],[-121.941175,37.531174],[-121.926032,37.539183],[-121.921309,37.543343],[-121.916669,37.554083],[-121.912638,37.558892],[-121.906095,37.561501],[-121.901486,37.565124],[-121.885202,37.574388],[-121.880012,37.576203],[-121.876676,37.578729],[-121.870534,37.589079],[-121.869974,37.592817],[-121.868628,37.594635],[-121.857859,37.597461],[-121.853313,37.597883],[-121.846146,37.602507],[-121.828736,37.607723],[-121.82075,37.611574],[-121.81038,37.619057],[-121.808147,37.623902],[-121.802427,37.628603],[-121.801609,37.634775],[-121.799144,37.636922],[-121.798483,37.638727],[-121.799413,37.642516],[-121.803921,37.64741],[-121.805479,37.651453],[-121.805673,37.688572],[-121.791535,37.688974],[-121.783824,37.688318],[-121.783455,37.683373],[-121.782513,37.682955],[-121.777973,37.682973],[-121.776401,37.68126],[-121.769806,37.683287],[-121.768533,37.682919],[-121.7681,37.681931],[-121.77277,37.690463],[-121.773361,37.700525],[-121.760749,37.702649],[-121.739366,37.702622],[-121.706287,37.716266],[-121.681474,37.721717],[-121.675073,37.720998],[-121.66917,37.718119],[-121.664821,37.718012],[-121.636029,37.72717],[-121.631257,37.731728],[-121.62737,37.733553],[-121.610954,37.734859],[-121.580087,37.741197],[-121.55088,37.743492],[-121.501211,37.740488],[-121.49659,37.740756],[-121.444981,37.761401],[-121.439475,37.762704],[-121.424004,37.762845],[-121.409268,37.764731],[-121.355234,37.764839],[-121.330879,37.767243],[-121.326184,37.769468],[-121.322377,37.773675],[-121.310123,37.782633],[-121.299893,37.788519],[-121.295342,37.789899],[-121.289363,37.789713],[-121.263008,37.783121],[-121.193663,37.783211],[-121.187189,37.785317],[-121.185017,37.783567],[-121.18548,37.78215],[-121.187213,37.782626],[-121.187546,37.783707],[-121.190956,37.796865],[-121.189716,37.797463],[-120.999314,37.798515],[-120.99529,37.796715],[-120.992774,37.796602],[-120.988754,37.794255],[-120.921167,37.79353],[-120.905032,37.793017],[-120.890329,37.791576],[-120.870753,37.791203],[-120.865401,37.789619],[-120.856537,37.782421],[-120.851167,37.772758],[-120.849999,37.772811],[-120.846186,37.767394],[-120.846753,37.768145],[-120.83978,37.771175],[-120.837671,37.770032],[-120.832573,37.772027],[-120.831104,37.770908],[-120.831981,37.770811],[-120.829883,37.77041],[-120.830977,37.77234],[-120.83049,37.7729],[-120.826802,37.774313],[-120.81653,37.776179],[-120.775559,37.776657],[-120.72916,37.787832],[-120.726087,37.791145],[-120.72419,37.795821],[-120.719143,37.802454],[-120.713459,37.806712],[-120.704966,37.804493],[-120.693254,37.807693],[-120.684666,37.806313],[-120.678823,37.803438],[-120.675021,37.803563],[-120.655435,37.815413],[-120.649904,37.820235],[-120.642192,37.82227],[-120.639121,37.823843],[-120.628331,37.832943],[-120.625767,37.838004],[-120.623292,37.840702],[-120.612667,37.845439],[-120.602447,37.846783],[-120.594671,37.849848],[-120.590192,37.849992],[-120.582665,37.849035],[-120.577283,37.847358],[-120.553165,37.845939],[-120.541613,37.843108],[-120.532159,37.843333],[-120.51622,37.840946],[-120.50973,37.842506],[-120.507639,37.843689],[-120.506706,37.846115],[-120.511948,37.858491],[-120.511643,37.865373],[-120.506234,37.87992],[-120.504693,37.88183],[-120.496176,37.887755],[-120.488892,37.890899],[-120.487928,37.890581],[-120.484601,37.886056],[-120.478225,37.88149],[-120.463726,37.879617],[-120.459672,37.877996],[-120.455912,37.879994],[-120.449136,37.877763],[-120.444214,37.877355],[-120.434644,37.874637],[-120.431565,37.872163],[-120.431107,37.868379],[-120.424738,37.861163],[-120.411489,37.851645],[-120.402199,37.850232],[-120.393631,37.850393],[-120.39012,37.849245],[-120.381303,37.843363],[-120.378633,37.839561],[-120.376414,37.838976],[-120.371214,37.84],[-120.367551,37.839367],[-120.35569,37.832416],[-120.347971,37.830611],[-120.315509,37.815546],[-120.304791,37.813661],[-120.299934,37.814038],[-120.297667,37.815848],[-120.297767,37.816566],[-120.306875,37.819048],[-120.307476,37.819625],[-120.306766,37.820128],[-120.304237,37.819225],[-120.29927,37.820651],[-120.298117,37.81957],[-120.29649,37.820069],[-120.295373,37.81849],[-120.292104,37.821284],[-120.29128,37.820947],[-120.291058,37.819553],[-120.290168,37.819473],[-120.288883,37.821101],[-120.283121,37.821281],[-120.283593,37.823691],[-120.284771,37.824574],[-120.280352,37.823113],[-120.279272,37.824791],[-120.277322,37.823806],[-120.27678,37.822515],[-120.275272,37.822146],[-120.274932,37.821574],[-120.276979,37.820365],[-120.272211,37.817868],[-120.273078,37.816766],[-120.272217,37.814223],[-120.270465,37.814249],[-120.268185,37.817054],[-120.264704,37.818543],[-120.261488,37.822467],[-120.258231,37.823284],[-120.253465,37.825894],[-120.241483,37.834517],[-120.229494,37.839405],[-120.225285,37.839965],[-120.222045,37.838556],[-120.22003,37.835971],[-120.216325,37.835399],[-120.213959,37.835669],[-120.209141,37.838697],[-120.206627,37.838574],[-120.203098,37.834257],[-120.19439,37.828491],[-120.190307,37.827981],[-120.184313,37.828818],[-120.168608,37.823229],[-120.156455,37.82056],[-120.149067,37.82109],[-120.134362,37.820136],[-120.129515,37.817035],[-120.120514,37.813509],[-120.111196,37.816056],[-120.09849,37.824162],[-120.093699,37.825404],[-120.090421,37.824816],[-120.088911,37.821525],[-120.086967,37.820384],[-120.076456,37.819575],[-120.071638,37.815122],[-120.066274,37.813808],[-120.049842,37.819883],[-120.045307,37.819805],[-120.038905,37.821832],[-120.032266,37.820866],[-120.02917,37.821207],[-120.025928,37.82264],[-120.023445,37.822705],[-120.019789,37.825124],[-120.017129,37.822765],[-120.015844,37.822534],[-120.009931,37.824801],[-120.006432,37.824468],[-120.003473,37.822458],[-120.000095,37.823025],[-119.99725,37.821266],[-119.99525,37.821268],[-119.99249,37.823653],[-119.988064,37.823958],[-119.983277,37.829413],[-119.979552,37.82784],[-119.974662,37.827031],[-119.966777,37.822743],[-119.958654,37.82141],[-119.955974,37.818666],[-119.951635,37.818737],[-119.949419,37.815966],[-119.948302,37.815742],[-119.938327,37.816314],[-119.933727,37.815129],[-119.931115,37.816535],[-119.928913,37.816285],[-119.921869,37.818479],[-119.920189,37.820408],[-119.91557,37.82224],[-119.914683,37.821801],[-119.913628,37.819259],[-119.911077,37.817704],[-119.90964,37.815157],[-119.905783,37.813976],[-119.904075,37.811698],[-119.902201,37.810895],[-119.900276,37.811225],[-119.89974,37.81314],[-119.898436,37.814115],[-119.894367,37.813247],[-119.881685,37.813518],[-119.876359,37.815948],[-119.875055,37.81487],[-119.874618,37.81199],[-119.871964,37.809321],[-119.873342,37.807129],[-119.872867,37.804429],[-119.875376,37.798903],[-119.87433,37.796385],[-119.874444,37.794459],[-119.872782,37.79143],[-119.875664,37.790442],[-119.876595,37.788948],[-119.868086,37.780852],[-119.866376,37.780065],[-119.865263,37.777545],[-119.861262,37.775818],[-119.861517,37.769854],[-119.859791,37.767156],[-119.85798,37.766099],[-119.855746,37.76621],[-119.853049,37.763544],[-119.84938,37.764414],[-119.833721,37.762108],[-119.832365,37.759698],[-119.827464,37.757847],[-119.82586,37.75553],[-119.825062,37.752231],[-119.822106,37.751783],[-119.81972,37.755088],[-119.816972,37.755866],[-119.814912,37.753368],[-119.811396,37.753524],[-119.806931,37.748087],[-119.803747,37.747297],[-119.802204,37.748329],[-119.8028,37.750552],[-119.802209,37.751416],[-119.798889,37.751917],[-119.79769,37.753101],[-119.801935,37.755195],[-119.80475,37.758079],[-119.804415,37.759359],[-119.801029,37.761167],[-119.795036,37.759472],[-119.791659,37.756824],[-119.788806,37.758705],[-119.785813,37.757014],[-119.779037,37.759408],[-119.776581,37.756359],[-119.773555,37.755348],[-119.771769,37.755642],[-119.769744,37.758345],[-119.77495,37.762311],[-119.773996,37.76608],[-119.770807,37.769186],[-119.768997,37.769887],[-119.763561,37.769731],[-119.761517,37.771865],[-119.756256,37.774769],[-119.75224,37.775371],[-119.749489,37.777394],[-119.747681,37.781232],[-119.740826,37.784584],[-119.735656,37.78866],[-119.73174,37.78941],[-119.726585,37.788795],[-119.723886,37.79014],[-119.718543,37.799379],[-119.717787,37.802613],[-119.713138,37.811458],[-119.712492,37.816227],[-119.714201,37.819473],[-119.705923,37.821087],[-119.704237,37.822133],[-119.701756,37.825961],[-119.701965,37.830945],[-119.698304,37.832393],[-119.690523,37.83809],[-119.686906,37.83948],[-119.67219,37.84958],[-119.66565,37.850093],[-119.661533,37.851575],[-119.656614,37.849742],[-119.653576,37.85014],[-119.645404,37.857443],[-119.64082,37.85691],[-119.632682,37.852246],[-119.622248,37.849104],[-119.618868,37.849256],[-119.615971,37.850537],[-119.611606,37.848818],[-119.605434,37.850193],[-119.601293,37.848277],[-119.596984,37.848664],[-119.595162,37.846609],[-119.594965,37.843244],[-119.59354,37.839671],[-119.59262,37.839064],[-119.589383,37.840167],[-119.587673,37.84588],[-119.578909,37.851793],[-119.576688,37.85224],[-119.57361,37.851542],[-119.572042,37.850072],[-119.571888,37.848024],[-119.573669,37.843425],[-119.577784,37.837375],[-119.578102,37.832867],[-119.581468,37.827213],[-119.580077,37.82479],[-119.580787,37.821655],[-119.578113,37.819482],[-119.578521,37.817768],[-119.580563,37.815739],[-119.580377,37.814836],[-119.57868,37.813996],[-119.575389,37.814525],[-119.572254,37.810547],[-119.567927,37.807939],[-119.557205,37.806008],[-119.548915,37.807219],[-119.544632,37.80677],[-119.537053,37.808342],[-119.532102,37.811511],[-119.528038,37.81241],[-119.515951,37.817938],[-119.508134,37.81673],[-119.507466,37.815072],[-119.509489,37.812073],[-119.508054,37.811078],[-119.502463,37.813296],[-119.497629,37.817157],[-119.496261,37.816331],[-119.49565,37.81406],[-119.492846,37.812567],[-119.487226,37.812421],[-119.484897,37.8109],[-119.478782,37.818689],[-119.476927,37.823808],[-119.467233,37.826539],[-119.465015,37.826126],[-119.461277,37.828829],[-119.456401,37.830811],[-119.452663,37.833807],[-119.451103,37.834086],[-119.4585,37.830088],[-119.462829,37.830825],[-119.46612,37.83025],[-119.467169,37.829659],[-119.467385,37.826958],[-119.468428,37.825801],[-119.471034,37.82576],[-119.476731,37.824025],[-119.477733,37.822878],[-119.478658,37.819007],[-119.481282,37.816167],[-119.483802,37.811619],[-119.485895,37.811123],[-119.484551,37.810882],[-119.487202,37.812449],[-119.492753,37.812584],[-119.496005,37.814445],[-119.496464,37.816721],[-119.497949,37.817174],[-119.502942,37.813104],[-119.508799,37.811303],[-119.509413,37.812644],[-119.507542,37.814735],[-119.50787,37.816514],[-119.51646,37.817962],[-119.527927,37.812539],[-119.531836,37.811736],[-119.537741,37.808178],[-119.544791,37.806789],[-119.548929,37.80726],[-119.556382,37.805925],[-119.567839,37.807941],[-119.572062,37.810413],[-119.575065,37.814417],[-119.578871,37.814032],[-119.580322,37.814727],[-119.580314,37.816249],[-119.578419,37.817842],[-119.578099,37.819506],[-119.580965,37.822037],[-119.580025,37.824282],[-119.581421,37.82765],[-119.578095,37.832825],[-119.577716,37.837448],[-119.573857,37.842966],[-119.571981,37.847806],[-119.571763,37.84943],[-119.573383,37.851466],[-119.577163,37.852328],[-119.578813,37.851944],[-119.580749,37.850059],[-119.587191,37.846419],[-119.588822,37.844059],[-119.589765,37.839748],[-119.592719,37.839118],[-119.595045,37.843573],[-119.594909,37.8461],[-119.597354,37.84882],[-119.602032,37.848456],[-119.605579,37.850233],[-119.61114,37.848752],[-119.616011,37.850566],[-119.619493,37.84916],[-119.621934,37.849087],[-119.628081,37.850429],[-119.634456,37.853133],[-119.640594,37.856858],[-119.644844,37.857643],[-119.64763,37.855967],[-119.653297,37.850295],[-119.657558,37.849936],[-119.661102,37.851589],[-119.66612,37.850088],[-119.672242,37.849631],[-119.686601,37.839762],[-119.69053,37.838194],[-119.698559,37.832326],[-119.701491,37.831396],[-119.702226,37.830653],[-119.701928,37.825445],[-119.704086,37.822359],[-119.705743,37.821185],[-119.712941,37.82008],[-119.714386,37.819117],[-119.712511,37.815763],[-119.713408,37.81072],[-119.717843,37.802625],[-119.718948,37.798627],[-119.724344,37.78972],[-119.727065,37.788732],[-119.731553,37.789421],[-119.735703,37.788677],[-119.740861,37.784547],[-119.74765,37.781352],[-119.749132,37.777968],[-119.752135,37.775466],[-119.757111,37.774357],[-119.761385,37.77198],[-119.763836,37.769654],[-119.770395,37.769503],[-119.774053,37.766086],[-119.774924,37.762671],[-119.774439,37.761228],[-119.77169,37.760235],[-119.769786,37.758268],[-119.772099,37.755428],[-119.777122,37.756684],[-119.778896,37.759376],[-119.78594,37.757069],[-119.788698,37.758701],[-119.791449,37.756882],[-119.793201,37.757565],[-119.794802,37.759488],[-119.801624,37.761137],[-119.80509,37.758607],[-119.802298,37.755415],[-119.797661,37.752884],[-119.799303,37.751779],[-119.802141,37.751482],[-119.802876,37.750101],[-119.802231,37.748653],[-119.803513,37.74733],[-119.807236,37.748337],[-119.810899,37.753221],[-119.81553,37.753751],[-119.817025,37.755912],[-119.818978,37.755705],[-119.820588,37.754475],[-119.82194,37.751909],[-119.824399,37.751932],[-119.825287,37.752497],[-119.825547,37.754837],[-119.827477,37.757901],[-119.831639,37.759268],[-119.83401,37.762286],[-119.849332,37.764427],[-119.853491,37.763705],[-119.855075,37.765917],[-119.859071,37.766493],[-119.861471,37.769564],[-119.861476,37.776173],[-119.8649,37.777284],[-119.866566,37.780209],[-119.86845,37.781132],[-119.876441,37.788671],[-119.876097,37.790162],[-119.873901,37.790607],[-119.872582,37.791877],[-119.874289,37.794047],[-119.875353,37.798858],[-119.872694,37.80482],[-119.873288,37.807288],[-119.871954,37.809397],[-119.874666,37.812219],[-119.875011,37.814693],[-119.876251,37.815945],[-119.881803,37.813533],[-119.893732,37.813279],[-119.898606,37.814136],[-119.899567,37.813634],[-119.900288,37.811291],[-119.902201,37.81093],[-119.903976,37.811654],[-119.906051,37.81416],[-119.909289,37.814965],[-119.915605,37.822294],[-119.920434,37.820321],[-119.922483,37.818282],[-119.928739,37.816365],[-119.931912,37.81628],[-119.933797,37.815144],[-119.939219,37.816373],[-119.948421,37.815769],[-119.949604,37.816078],[-119.952173,37.818932],[-119.956201,37.818847],[-119.959239,37.82166],[-119.966467,37.822704],[-119.974943,37.827157],[-119.98363,37.829347],[-119.987801,37.824179],[-119.99301,37.823557],[-119.995833,37.821117],[-119.999606,37.822851],[-120.004069,37.822638],[-120.006501,37.82451],[-120.009932,37.824825],[-120.014886,37.822678],[-120.016919,37.822677],[-120.01869,37.824618],[-120.020643,37.825087],[-120.023448,37.822726],[-120.026705,37.822459],[-120.029747,37.821114],[-120.0385,37.821926],[-120.045441,37.81981],[-120.050091,37.819874],[-120.066677,37.813864],[-120.071634,37.815182],[-120.076411,37.819607],[-120.08732,37.820598],[-120.088846,37.821526],[-120.090131,37.824595],[-120.093114,37.825526],[-120.099315,37.823798],[-120.110666,37.816293],[-120.119985,37.8135],[-120.129791,37.817183],[-120.134514,37.820201],[-120.148554,37.82111],[-120.1571,37.820707],[-120.168495,37.823236],[-120.18385,37.828767],[-120.19373,37.82833],[-120.202951,37.834151],[-120.205419,37.837623],[-120.20721,37.838804],[-120.209505,37.83861],[-120.213545,37.835909],[-120.215818,37.835408],[-120.220093,37.836068],[-120.223873,37.839726],[-120.22915,37.839599],[-120.241501,37.83461],[-120.253781,37.825807],[-120.258056,37.823408],[-120.261211,37.822697],[-120.264507,37.818771],[-120.268799,37.816614],[-120.269473,37.81499],[-120.271782,37.81397],[-120.271705,37.813252],[-120.267268,37.811746],[-120.266985,37.810559],[-120.264307,37.809339],[-120.260556,37.808638],[-120.260157,37.804941],[-120.258956,37.803492],[-120.255354,37.801792],[-120.253934,37.799703],[-120.244949,37.792271],[-120.242441,37.784693],[-120.234587,37.781023],[-120.231066,37.780483],[-120.229496,37.778754],[-120.221172,37.776582],[-120.213414,37.772268],[-120.207291,37.762051],[-120.205172,37.756313],[-120.198236,37.754432],[-120.193352,37.750871],[-120.190825,37.747946],[-120.188148,37.743878],[-120.186602,37.739105],[-120.188049,37.737306],[-120.186819,37.734654],[-120.186935,37.731282],[-120.188809,37.728447],[-120.186085,37.725514],[-120.186083,37.721062],[-120.187814,37.718863],[-120.192794,37.71638],[-120.194385,37.71344],[-120.197014,37.710973],[-120.198764,37.707371],[-120.201873,37.708074],[-120.204289,37.71065],[-120.208837,37.712738],[-120.212243,37.713192],[-120.216439,37.711946],[-120.218525,37.709513],[-120.225336,37.70983],[-120.226319,37.706753],[-120.228162,37.705997],[-120.235752,37.706355],[-120.245374,37.709132],[-120.249518,37.706513],[-120.250287,37.70321],[-120.251682,37.702071],[-120.271954,37.699791],[-120.277999,37.701864],[-120.283434,37.699754],[-120.286822,37.699712],[-120.298041,37.701945],[-120.319867,37.713885],[-120.323661,37.713865],[-120.330044,37.711545],[-120.33356,37.708783],[-120.334503,37.702126],[-120.333806,37.697711],[-120.330513,37.690267],[-120.330829,37.684619],[-120.332507,37.680816],[-120.336103,37.67717],[-120.342335,37.674054],[-120.344525,37.674256],[-120.350258,37.677626],[-120.357408,37.679371],[-120.361229,37.679365],[-120.364767,37.677001],[-120.366916,37.670743],[-120.373202,37.665188],[-120.373511,37.660536],[-120.370703,37.649617],[-120.370881,37.647021],[-120.372351,37.645254],[-120.385905,37.637354],[-120.393239,37.637393],[-120.404135,37.64544],[-120.409201,37.645489],[-120.411319,37.647329],[-120.421009,37.65086],[-120.424734,37.653328],[-120.431822,37.654483],[-120.444347,37.658006],[-120.44868,37.658355],[-120.456184,37.661375],[-120.459269,37.661615],[-120.461537,37.663707],[-120.47043,37.663492],[-120.483126,37.661276],[-120.484805,37.659963],[-120.487023,37.655129],[-120.492229,37.64847],[-120.496152,37.646598],[-120.506115,37.63836],[-120.51619,37.633435],[-120.52156,37.633973],[-120.527067,37.637248],[-120.534015,37.638374],[-120.549053,37.63895],[-120.556759,37.636221],[-120.567183,37.638104],[-120.572371,37.640278],[-120.58275,37.639996],[-120.592092,37.642675],[-120.60138,37.641998],[-120.60864,37.645796],[-120.613752,37.644143],[-120.614754,37.640443],[-120.618302,37.638696],[-120.628999,37.64093],[-120.639393,37.642216],[-120.643962,37.642009],[-120.651844,37.644306],[-120.67479,37.646865],[-120.689253,37.64618],[-120.698113,37.646767],[-120.709887,37.643086],[-120.741045,37.639717],[-120.757019,37.639364],[-120.761042,37.638279],[-120.923101,37.638347],[-120.923105,37.639746],[-120.920922,37.643614],[-120.921196,37.656889],[-120.921987,37.657681],[-120.928388,37.657531],[-120.942215,37.654582],[-120.947622,37.652631],[-120.95717,37.65318],[-120.95726,37.656496],[-120.957393,37.632458],[-120.959112,37.631922],[-120.95452,37.628646],[-120.959054,37.631953],[-120.957587,37.632362],[-120.956347,37.630058],[-120.940388,37.621366],[-120.938746,37.619037],[-120.939027,37.580554],[-120.95624,37.5803],[-120.957,37.579501],[-120.957117,37.55149],[-121.030086,37.551458],[-121.030934,37.494049],[-121.031643,37.493336],[-121.05342,37.493348],[-121.068467,37.496349],[-121.074931,37.49589],[-121.087249,37.491303],[-121.12766,37.472867],[-121.128806,37.471682],[-121.127466,37.469852],[-121.130263,37.468463],[-121.130839,37.468261],[-121.129862,37.471539],[-121.13047,37.471705],[-121.140254,37.466942],[-121.143591,37.466434],[-121.145503,37.464463],[-121.176303,37.464619],[-121.183414,37.462753],[-121.190259,37.464412],[-121.194785,37.469253],[-121.199866,37.471771],[-121.210872,37.480075],[-121.211948,37.480107],[-121.215096,37.47798],[-121.222397,37.476962],[-121.225417,37.477669],[-121.229805,37.475045],[-121.232983,37.475433],[-121.235854,37.473671],[-121.238011,37.474318],[-121.240467,37.473419],[-121.240631,37.47211],[-121.243943,37.469654],[-121.244323,37.467125],[-121.247516,37.465593],[-121.249948,37.464704],[-121.252941,37.466169],[-121.254281,37.465515],[-121.251936,37.463267],[-121.251698,37.461831],[-121.253313,37.461408],[-121.253463,37.460043],[-121.255673,37.45887],[-121.252744,37.456453],[-121.257114,37.45027],[-121.256976,37.449479],[-121.25467,37.448459],[-121.255224,37.448007],[-121.259582,37.44898],[-121.263359,37.452376],[-121.266277,37.453623],[-121.270308,37.453606],[-121.274044,37.452525],[-121.28066,37.453249],[-121.28324,37.451233],[-121.282667,37.446034],[-121.285758,37.443768],[-121.293773,37.443967],[-121.305563,37.439219],[-121.307316,37.440771],[-121.311025,37.440057],[-121.313099,37.442172],[-121.317318,37.437272],[-121.321234,37.437947],[-121.322886,37.435676],[-121.328051,37.436067],[-121.329724,37.437693],[-121.332214,37.437943],[-121.333591,37.439179],[-121.335771,37.438765],[-121.336139,37.433752],[-121.337054,37.432596],[-121.33645,37.429659],[-121.341593,37.42596],[-121.344316,37.420645],[-121.348428,37.420389],[-121.350549,37.421143],[-121.357028,37.418808],[-121.364634,37.422818],[-121.369475,37.423725],[-121.370464,37.423558],[-121.372559,37.420946],[-121.374551,37.420679],[-121.378969,37.422596],[-121.381884,37.422653],[-121.389361,37.420606],[-121.392484,37.418629],[-121.395209,37.417988],[-121.397626,37.415223],[-121.405929,37.41206],[-121.409363,37.408735],[-121.416697,37.408861],[-121.419142,37.409759],[-121.428153,37.410362],[-121.431233,37.405094],[-121.436441,37.40424],[-121.438407,37.401809],[-121.444679,37.399308],[-121.446145,37.396584],[-121.449119,37.394781],[-121.451645,37.388407],[-121.457964,37.383862],[-121.462139,37.384014],[-121.465599,37.385949],[-121.468481,37.3896],[-121.470178,37.39043],[-121.475325,37.391022],[-121.478611,37.389272],[-121.480106,37.389964],[-121.482135,37.389597],[-121.484712,37.39104],[-121.487262,37.390594],[-121.490154,37.391745],[-121.491413,37.387558],[-121.491246,37.385159],[-121.484412,37.375883],[-121.484261,37.369589],[-121.487975,37.36676],[-121.484562,37.363382],[-121.478307,37.352793],[-121.477736,37.341061],[-121.476246,37.337265],[-121.476169,37.332304],[-121.474768,37.328994],[-121.475647,37.326828],[-121.48171,37.328677],[-121.484554,37.32897],[-121.485793,37.328307],[-121.490481,37.329851],[-121.493319,37.332143],[-121.500701,37.333547],[-121.503861,37.335431],[-121.512393,37.337854],[-121.519081,37.341519],[-121.527512,37.342579],[-121.528237,37.34409],[-121.53152,37.346349],[-121.534876,37.350391],[-121.538755,37.35087],[-121.54308,37.352725],[-121.54359,37.351497],[-121.545735,37.351034],[-121.551516,37.353985],[-121.55645,37.353745],[-121.562406,37.355182],[-121.564085,37.35643],[-121.566857,37.356073],[-121.570918,37.357963],[-121.573262,37.357827],[-121.574081,37.359542],[-121.575178,37.356807],[-121.581573,37.357886],[-121.583806,37.359698],[-121.584376,37.358492],[-121.583887,37.356666],[-121.586269,37.3574],[-121.589464,37.356502],[-121.590499,37.353692],[-121.588912,37.352564],[-121.589186,37.351975],[-121.590687,37.351964],[-121.595286,37.348893],[-121.594663,37.350611],[-121.595305,37.351041],[-121.599126,37.348339],[-121.598562,37.350064],[-121.600146,37.349834],[-121.605728,37.352084],[-121.608751,37.350181],[-121.610693,37.351159],[-121.611734,37.349423],[-121.613663,37.350372],[-121.613816,37.352088],[-121.614864,37.349022],[-121.61615,37.349472],[-121.617309,37.348779],[-121.620577,37.350274],[-121.620432,37.349227],[-121.623261,37.348464],[-121.623637,37.346804],[-121.625619,37.346695],[-121.626565,37.345759],[-121.630796,37.345886],[-121.638444,37.342264],[-121.639915,37.342418],[-121.637507,37.342943],[-121.640891,37.341978],[-121.643173,37.342318],[-121.644132,37.340972],[-121.643964,37.337349],[-121.645454,37.338602],[-121.645304,37.342104],[-121.645937,37.342432],[-121.64717,37.342344],[-121.648117,37.340832],[-121.647906,37.341474],[-121.650102,37.342336],[-121.650377,37.341099],[-121.65171,37.340973],[-121.652407,37.339218],[-121.653815,37.339003],[-121.654975,37.340125],[-121.653368,37.337186],[-121.653619,37.337712],[-121.656198,37.337422],[-121.657043,37.336361],[-121.658246,37.337683],[-121.658199,37.338386],[-121.656726,37.338909],[-121.656916,37.340723],[-121.658289,37.340141],[-121.66123,37.340486],[-121.664473,37.338757],[-121.664802,37.33918],[-121.662737,37.34162],[-121.664804,37.340623],[-121.66644,37.340955],[-121.667807,37.33961],[-121.665954,37.337672],[-121.667248,37.33685],[-121.667589,37.335142],[-121.667018,37.335078],[-121.667974,37.333264],[-121.666941,37.332795],[-121.667002,37.330898],[-121.665847,37.330794],[-121.664906,37.329477],[-121.666233,37.328924],[-121.665942,37.327647],[-121.667931,37.326994],[-121.667882,37.326357],[-121.670656,37.327679],[-121.67106,37.32723],[-121.668813,37.3245],[-121.669398,37.323453],[-121.673029,37.325536],[-121.674738,37.328127],[-121.677172,37.329506],[-121.683049,37.32885],[-121.684327,37.330166],[-121.685765,37.330375],[-121.68602,37.33089],[-121.685189,37.331119],[-121.685689,37.331705],[-121.687438,37.332019],[-121.689637,37.330569],[-121.689307,37.329871],[-121.692432,37.328823],[-121.693103,37.329131],[-121.692149,37.3301],[-121.695256,37.330853],[-121.695194,37.331546],[-121.697029,37.332268],[-121.697445,37.332838],[-121.696406,37.334246],[-121.699154,37.334558],[-121.699981,37.335705],[-121.702044,37.334663],[-121.706889,37.33685],[-121.710117,37.33982],[-121.715707,37.342331],[-121.720879,37.341454],[-121.721757,37.341898],[-121.728037,37.348126],[-121.734535,37.352224],[-121.740841,37.353762],[-121.741868,37.355275],[-121.744809,37.3557],[-121.745002,37.356795],[-121.747902,37.358405],[-121.754214,37.359801],[-121.75519,37.360695],[-121.75452,37.361856],[-121.755331,37.362892],[-121.760728,37.363375],[-121.763128,37.364472],[-121.76754,37.368325],[-121.767607,37.369416],[-121.769885,37.372063],[-121.77148,37.372311],[-121.771825,37.374544],[-121.773414,37.375691],[-121.773088,37.376276],[-121.775711,37.377907],[-121.781165,37.378385],[-121.786442,37.377239],[-121.788351,37.37588],[-121.78945,37.376718],[-121.793281,37.375719],[-121.797145,37.376377],[-121.798868,37.375974],[-121.798404,37.3747],[-121.802377,37.377302],[-121.804131,37.377104],[-121.810359,37.378964],[-121.812467,37.381592],[-121.815873,37.384036],[-121.82718,37.366428],[-121.841615,37.359522],[-121.84244,37.36],[-121.84166,37.359951],[-121.838279,37.354166],[-121.838256,37.351654],[-121.839907,37.34881],[-121.848501,37.342026],[-121.870141,37.329008],[-121.879346,37.327687],[-121.886232,37.32524],[-121.896583,37.323168],[-121.900073,37.321422],[-121.903738,37.317866],[-121.910486,37.314966],[-121.912948,37.314947],[-121.92011,37.316981],[-121.935656,37.317627],[-121.970723,37.316424],[-121.977588,37.318039],[-121.991182,37.318866],[-122.019722,37.333502],[-122.031988,37.335069],[-122.032549,37.337657],[-122.041825,37.337605],[-122.04221,37.338851],[-122.042172,37.337842],[-122.042987,37.337591],[-122.049721,37.337603],[-122.050507,37.349504],[-122.050143,37.358726],[-122.049358,37.359435],[-122.027052,37.359096],[-122.025501,37.360264],[-122.021054,37.373427],[-122.016358,37.372285]]}},{"type":"Feature","properties":{"startTs":1786757704,"endTs":1786760950,"durationMin":54,"placeName":"San Francisco, California, United States","isHomeLayover":false,"isOvernight":false},"geometry":{"type":"Point","coordinates":[-122.38947066666667,37.77850866666667]}},{"type":"Feature","properties":{"startTs":1786763756,"endTs":1786767074,"durationMin":55,"placeName":"San Francisco, California, United States","isHomeLayover":false,"isOvernight":false},"geometry":{"type":"Point","coordinates":[-122.388953,37.77893220833333]}},{"type":"Feature","properties":{"startTs":1786773066,"endTs":1786777201,"durationMin":69,"placeName":"Sunnyvale, California, United States","isHomeLayover":true,"isOvernight":false},"geometry":{"type":"Point","coordinates":[-122.01575083333331,37.372581833333335]}},{"type":"Feature","properties":{"startTs":1786814725,"endTs":1786816269,"durationMin":26,"placeName":"Pleasanton, California, United States","isHomeLayover":true,"isOvernight":false},"geometry":{"type":"Point","coordinates":[-121.76867692307691,37.682655230769235]}},{"type":"Feature","properties":{"startTs":1786820359,"endTs":1786824702,"durationMin":72,"placeName":"Oakdale, California, United States","isHomeLayover":false,"isOvernight":false},"geometry":{"type":"Point","coordinates":[-120.8463939,37.768082199999995]}},{"type":"Feature","properties":{"startTs":1786828724,"endTs":1786830728,"durationMin":33,"placeName":"Tuolumne County, California, United States","isHomeLayover":false,"isOvernight":false},"geometry":{"type":"Point","coordinates":[-120.23340900000002,37.83749585714286]}},{"type":"Feature","properties":{"startTs":1786835808,"endTs":1786837567,"durationMin":29,"placeName":"Mariposa County, California, United States","isHomeLayover":false,"isOvernight":false},"geometry":{"type":"Point","coordinates":[-119.47071014285714,37.825657714285704]}},{"type":"Feature","properties":{"startTs":1786841322,"endTs":1786843780,"durationMin":41,"placeName":"Mariposa County, California, United States","isHomeLayover":false,"isOvernight":false},"geometry":{"type":"Point","coordinates":[-119.45227596153845,37.83350526923078]}},{"type":"Feature","properties":{"startTs":1786847073,"endTs":1786848299,"durationMin":20,"placeName":"Mariposa County, California, United States","isHomeLayover":false,"isOvernight":false},"geometry":{"type":"Point","coordinates":[-119.46993211111109,37.82572688888889]}},{"type":"Feature","properties":{"startTs":1786853986,"endTs":1786900555,"durationMin":776,"placeName":"Tuolumne County, California, United States","isHomeLayover":false,"isOvernight":true},"geometry":{"type":"Point","coordinates":[-120.23377675,37.837352916666674]}},{"type":"Feature","properties":{"startTs":1786905636,"endTs":1786908947,"durationMin":55,"placeName":"Modesto, California, United States","isHomeLayover":false,"isOvernight":false},"geometry":{"type":"Point","coordinates":[-120.95699214285715,37.65543014285714]}},{"type":"Feature","properties":{"startTs":1786919344,"endTs":1786920914,"durationMin":26,"placeName":"Santa Clara County, California, United States","isHomeLayover":true,"isOvernight":false},"geometry":{"type":"Point","coordinates":[-121.63866523809524,37.34256095238096]}}],"bbox":[-122.413457,37.314947,-119.451103,37.890899]}